OBJECT_NAME,OBJECT_ID,EPOCH,MEAN_MOTION,ECCENTRICITY,INCLINATION,RA_OF_ASC_NODE,ARG_OF_PERICENTER,MEAN_ANOMALY,EPHEMERIS_TYPE,CLASSIFICATION_TYPE,NORAD_CAT_ID,ELEMENT_SET_NO,REV_AT_EPOCH,BSTAR,MEAN_MOTION_DOT,MEAN_MOTION_DDOT
ONEWEB-0130,2020-100U,2026-06-09T11:45:28.687104,13.12443816,.00017359,87.8950,352.1834,91.8300,268.3028,0,U,47276,999,26363,-.81505538E-3,-.28E-5,0
ONEWEB-0131,2020-100V,2026-06-09T11:40:35.216544,13.12444403,.00017694,87.8936,352.2027,89.6451,270.4881,0,U,47277,999,26367,-.11988332E-2,-.419E-5,0
ONEWEB-0132,2020-100W,2026-06-09T12:22:05.167776,13.12443918,.00017391,87.8939,352.1988,88.3223,271.8105,0,U,47278,999,26357,.12207446E-2,.452E-5,0
ONEWEB-0133,2020-100X,2026-06-09T12:46:16.138272,13.12443463,.0001649,87.8954,352.1705,85.8766,274.2551,0,U,47279,999,26373,.76396778E-3,.288E-5,0
ONEWEB-0134,2020-100Y,2026-06-09T12:02:32.896896,13.12445262,.00015607,87.8953,352.1738,93.9803,266.1504,0,U,47280,999,26370,.42474126E-4,.28E-6,0
ONEWEB-0135,2020-100Z,2026-06-09T13:10:51.347424,13.12443552,.00014761,87.8938,352.1878,89.8952,270.2346,0,U,47281,999,26373,-.77145382E-3,-.265E-5,0
ONEWEB-0136,2020-100AA,2026-06-09T11:47:54.584736,13.12444229,.00015305,87.8948,352.1805,95.5746,264.5558,0,U,47282,999,26365,-.76722844E-3,-.263E-5,0
ONEWEB-0137,2020-100AB,2026-06-09T12:36:42.685056,13.12443632,.00019472,87.8951,352.1830,88.8959,271.2393,0,U,47283,999,26356,.12530254E-2,.464E-5,0
ONEWEB-0138,2020-100AC,2026-06-09T12:05:00.043872,13.12444268,.0001657,87.8950,352.1936,94.8648,265.2670,0,U,47284,999,26364,.25866644E-3,.106E-5,0
ONEWEB-0139,2020-100AD,2026-06-09T13:03:44.727552,13.12439599,.0001712,87.8946,352.1717,91.4781,268.6543,0,U,47285,999,26372,-.1842185E-2,-.65E-5,0
ONEWEB-0140,2020-100AE,2026-06-09T11:57:40.501152,13.12444376,.0001697,87.8949,352.1717,84.2654,275.8668,0,U,47286,999,26368,-.30516155E-3,-.97E-6,0
ONEWEB-0141,2020-100AF,2026-06-09T13:03:20.598624,13.12443159,.00021001,87.8949,352.1673,90.7799,269.3570,0,U,47287,999,26367,-.39477761E-3,-.129E-5,0
ONEWEB-0142,2020-100AG,2026-06-09T12:46:41.705760,13.12441527,.00020354,87.8943,352.1917,99.8732,260.2627,0,U,47288,999,26366,.82170644E-3,.308E-5,0
ONEWEB-0143,2020-100AH,2026-06-09T13:01:06.217248,13.12442697,.00018355,87.8948,352.1881,89.1194,271.0145,0,U,47289,999,26364,.63638773E-4,.36E-6,0
ONEWEB-0144,2020-100AJ,2026-06-09T12:19:39.601056,13.12444510,.0001704,87.8952,352.1677,100.9990,259.1330,0,U,47290,999,26356,.12020053E-2,.445E-5,0
ONEWEB-0145,2020-100AK,2026-06-09T11:38:09.255840,13.12443995,.00018074,87.8942,352.2024,92.0876,268.0460,0,U,47291,999,26375,-.11692886E-2,-.408E-5,0
ONEWEB-0146,2020-100AL,2026-06-09T11:33:16.730496,13.12443679,.00018122,87.8948,352.1939,78.1557,281.9775,0,U,47292,999,26366,-.1179798E-2,-.412E-5,0
ONEWEB-0147,2020-100AM,2026-06-09T12:34:16.411584,13.12443633,.00016255,87.8949,352.1668,88.8045,271.3270,0,U,47293,999,26356,.12722884E-2,.47E-5,0
ONEWEB-0115,2021-025A,2026-06-09T11:33:45.715104,13.13470481,.00018029,87.8953,321.7579,92.8171,267.3165,0,U,48042,999,25258,-.46122695E-3,-.156E-5,0
ONEWEB-0152,2021-025B,2026-06-09T11:53:15.847584,13.13470858,.00017559,87.8954,321.7517,90.4059,269.7271,0,U,48043,999,25254,.18963995E-3,.82E-6,0
ONEWEB-0153,2021-025C,2026-06-09T11:21:34.060032,13.13470471,.00018551,87.8948,321.7592,96.8788,263.2553,0,U,48044,999,25253,-.72553485E-3,-.252E-5,0
ONEWEB-0154,2021-025D,2026-06-09T11:16:41.469024,13.13469497,.0001709,87.8951,321.7572,94.8912,265.2413,0,U,48045,999,25249,-.71093212E-3,-.247E-5,0
ONEWEB-0116,2021-025E,2026-06-09T08:33:21.369312,13.13469349,.0001752,87.8956,321.7764,91.0385,269.0944,0,U,48046,999,25262,.57149947E-3,.221E-5,0
ONEWEB-0150,2021-025F,2026-06-09T11:38:38.071968,13.13470575,.00020298,87.8956,321.7483,94.1945,265.9417,0,U,48047,999,25253,-.45293693E-3,-.153E-5,0
ONEWEB-0107,2021-025G,2026-06-09T11:41:04.395552,13.13470220,.00019215,87.8958,321.7439,102.2908,257.8436,0,U,48048,999,25251,-.30833475E-3,-.1E-5,0
ONEWEB-0101,2021-025H,2026-06-09T12:37:08.556672,13.13469830,.00017055,87.8947,321.7523,98.6472,261.4850,0,U,48049,999,25249,.58418733E-3,.226E-5,0
ONEWEB-0113,2021-025J,2026-06-09T11:26:06.012672,13.13894976,.00018587,87.8951,321.6732,92.6375,267.4968,0,U,48050,999,25259,-.59231183E-3,-.205E-5,0
ONEWEB-0112,2021-025K,2026-06-09T11:48:23.300640,13.13470911,.00016876,87.8957,321.7408,101.5123,258.6195,0,U,48051,999,25258,-.1145752E-3,-.29E-6,0
ONEWEB-0156,2021-025L,2026-06-09T12:00:34.531488,13.13470536,.00019084,87.8956,321.7491,97.3166,262.8180,0,U,48052,999,25256,.3128114E-3,.127E-5,0
ONEWEB-0161,2021-025M,2026-06-09T11:24:00.262656,13.13471412,.00019369,87.8951,321.7554,99.2384,260.8964,0,U,48053,999,25249,-.60627289E-3,-.209E-5,0
