ONEWEB-0130             
1 47276U 20100U   26160.48991536 -.00000280  00000+0 -81506-3 0  9993
2 47276  87.8950 352.1834 0001735  91.8300 268.3028 13.12443816263630
ONEWEB-0131             
1 47277U 20100V   26160.48651871 -.00000419  00000+0 -11988-2 0  9999
2 47277  87.8936 352.2027 0001769  89.6451 270.4881 13.12444403263677
ONEWEB-0132             
1 47278U 20100W   26160.51533759  .00000452  00000+0  12207-2 0  9998
2 47278  87.8939 352.1988 0001739  88.3223 271.8105 13.12443918263579
ONEWEB-0133             
1 47279U 20100X   26160.53213123  .00000288  00000+0  76397-3 0  9999
2 47279  87.8954 352.1705 0001649  85.8766 274.2551 13.12443463263733
ONEWEB-0134             
1 47280U 20100Y   26160.50176964  .00000028  00000+0  42474-4 0  9991
2 47280  87.8953 352.1738 0001560  93.9803 266.1504 13.12445262263708
ONEWEB-0135             
1 47281U 20100Z   26160.54920541 -.00000265  00000+0 -77145-3 0  9991
2 47281  87.8938 352.1878 0001476  89.8952 270.2346 13.12443552263735
ONEWEB-0136             
1 47282U 20100AA  26160.49160399 -.00000263  00000+0 -76723-3 0  9992
2 47282  87.8948 352.1805 0001530  95.5746 264.5558 13.12444229263657
ONEWEB-0137             
1 47283U 20100AB  26160.52549404  .00000464  00000+0  12530-2 0  9991
2 47283  87.8951 352.1830 0001947  88.8959 271.2393 13.12443632263562
ONEWEB-0138             
1 47284U 20100AC  26160.50347273  .00000106  00000+0  25867-3 0  9991
2 47284  87.8950 352.1936 0001657  94.8648 265.2670 13.12444268263645
ONEWEB-0139             
1 47285U 20100AD  26160.54426768 -.00000650  00000+0 -18422-2 0  9997
2 47285  87.8946 352.1717 0001712  91.4781 268.6543 13.12439599263727
ONEWEB-0140             
1 47286U 20100AE  26160.49838543 -.00000097  00000+0 -30516-3 0  9994
2 47286  87.8949 352.1717 0001697  84.2654 275.8668 13.12444376263684
ONEWEB-0141             
1 47287U 20100AF  26160.54398841 -.00000129  00000+0 -39478-3 0  9995
2 47287  87.8949 352.1673 0002100  90.7799 269.3570 13.12443159263675
ONEWEB-0142             
1 47288U 20100AG  26160.53242715  .00000308  00000+0  82171-3 0  9998
2 47288  87.8943 352.1917 0002035  99.8732 260.2627 13.12441527263664
ONEWEB-0143             
1 47289U 20100AH  26160.54243307  .00000036  00000+0  63639-4 0  9995
2 47289  87.8948 352.1881 0001835  89.1194 271.0145 13.12442697263643
ONEWEB-0144             
1 47290U 20100AJ  26160.51365279  .00000445  00000+0  12020-2 0  9997
2 47290  87.8952 352.1677 0001704 100.9990 259.1330 13.12444510263564
ONEWEB-0145             
1 47291U 20100AK  26160.48482935 -.00000408  00000+0 -11693-2 0  9999
2 47291  87.8942 352.2024 0001807  92.0876 268.0460 13.12443995263759
ONEWEB-0146             
1 47292U 20100AL  26160.48144364 -.00000412  00000+0 -11798-2 0  9992
2 47292  87.8948 352.1939 0001812  78.1557 281.9775 13.12443679263669
ONEWEB-0147             
1 47293U 20100AM  26160.52380106  .00000470  00000+0  12723-2 0  9995
2 47293  87.8949 352.1668 0001625  88.8045 271.3270 13.12443633263564
ONEWEB-0115             
1 48042U 21025A   26160.48177911 -.00000156  00000+0 -46123-3 0  9993
2 48042  87.8953 321.7579 0001802  92.8171 267.3165 13.13470481252587
ONEWEB-0152             
1 48043U 21025B   26160.49532231  .00000082  00000+0  18964-3 0  9993
2 48043  87.8954 321.7517 0001755  90.4059 269.7271 13.13470858252545
ONEWEB-0153             
1 48044U 21025C   26160.47331088 -.00000252  00000+0 -72553-3 0  9994
2 48044  87.8948 321.7592 0001855  96.8788 263.2553 13.13470471252534
ONEWEB-0154             
1 48045U 21025D   26160.46992441 -.00000247  00000+0 -71093-3 0  9992
2 48045  87.8951 321.7572 0001709  94.8912 265.2413 13.13469497252490
ONEWEB-0116             
1 48046U 21025E   26160.35649733  .00000221  00000+0  57150-3 0  9992
2 48046  87.8956 321.7764 0001752  91.0385 269.0944 13.13469349252622
ONEWEB-0150             
1 48047U 21025F   26160.48516287 -.00000153  00000+0 -45294-3 0  9996
2 48047  87.8956 321.7483 0002029  94.1945 265.9417 13.13470575252538
ONEWEB-0107             
1 48048U 21025G   26160.48685643 -.00000100  00000+0 -30833-3 0  9995
2 48048  87.8958 321.7439 0001921 102.2908 257.8436 13.13470220252518
ONEWEB-0101             
1 48049U 21025H   26160.52579348  .00000226  00000+0  58419-3 0  9992
2 48049  87.8947 321.7523 0001705  98.6472 261.4850 13.13469830252498
ONEWEB-0113             
1 48050U 21025J   26160.47645848 -.00000205  00000+0 -59231-3 0  9999
2 48050  87.8951 321.6732 0001858  92.6375 267.4968 13.13894976252591
ONEWEB-0112             
1 48051U 21025K   26160.49193635 -.00000029  00000+0 -11458-3 0  9997
2 48051  87.8957 321.7408 0001687 101.5123 258.6195 13.13470911252582
ONEWEB-0156             
1 48052U 21025L   26160.50039967  .00000127  00000+0  31281-3 0  9990
2 48052  87.8956 321.7491 0001908  97.3166 262.8180 13.13470536252561
ONEWEB-0161             
1 48053U 21025M   26160.47500304 -.00000209  00000+0 -60627-3 0  9994
2 48053  87.8951 321.7554 0001936  99.2384 260.8964 13.13471412252495
